ONEWEB-0267             
1 48985U 21060U   21199.91667824 -.01392945  00000-0 -57747-1 0  9994
2 48985  87.4049 231.2789 0005692 203.5972 183.2756 15.27137208  3944
ONEWEB-0268             
1 48986U 21060V   21199.91667824 -.01376212  00000-0 -44661-1 0  9995
2 48986  87.4022 231.2636 0005958 207.9999 250.1314 15.34946286  3945
ONEWEB-0269             
1 48987U 21060W   21199.83334491 -.01451734  00000-0 -51629-1 0  9993
2 48987  87.4110 231.2868 0006387 179.4717 275.2829 15.32217641  3942
ONEWEB-0270             
1 48988U 21060X   21199.83334491 -.01445044  00000-0 -43998-1 0  9991
2 48988  87.4100 231.2612 0011270 175.0369  83.9244 15.36993014  3967
ONEWEB-0271             
1 48989U 21060Y   21199.83334491 -.00008764  00000-0 -26092-3 0  9993
2 48989  87.3996 231.2975 0006704 214.3010 130.7037 15.34913690  3936
ONEWEB-0272             
1 48990U 21060Z   21199.58334491 -.01421899  00000-0 -48366-1 0  9992
2 48990  87.4109 231.3740 0005900 186.7685 345.7596 15.33568407  3639
ONEWEB-0273             
1 48991U 21060AA  21199.83334491 -.01424912  00000-0 -54186-1 0  9997
2 48991  87.4066 231.2921 0009584 202.1017 170.6150 15.29966915  3942
ONEWEB-0274             
1 48992U 21060AB  21199.83334491 -.01372255  00000-0 -45688-1 0  9997
2 48992  87.4137 231.2792 0005725 197.0173 304.6410 15.34137134  3943
ONEWEB-0275             
1 48993U 21060AC  21199.83334491 -.01451305  00000-0 -58722-1 0  9995
2 48993  87.4064 231.3068 0006571 210.3843  98.4249 15.28056720  3934
ONEWEB-0276             
1 48994U 21060AD  21199.58334491 -.01443019  00000-0 -51874-1 0  9992
2 48994  87.4094 231.3764 0008782 184.8733 293.8030 15.31822635  3647
ONEWEB-0277             
1 48995U 21060AE  21199.83334491 -.01433821  00000-0 -56297-1 0  9995
2 48995  87.4075 231.3035 0008352 212.8352 127.4834 15.28970719  3939
ONEWEB-0278             
1 48996U 21060AF  21199.83334491 -.01432748  00000-0 -44022-1 0  9996
2 48996  87.4079 231.2570 0011160 177.2292  73.4736 15.36688629  3964
ONEWEB-0279             
1 48997U 21060AG  21199.83334491 -.01449219  00000-0 -53941-1 0  9998
2 48997  87.4063 231.2910 0009577 193.7519 208.0639 15.30711384  3945
ONEWEB-0280             
1 48998U 21060AH  21199.83334491 -.01456976  00000-0 -60662-1 0  9995
2 48998  87.4040 231.3072 0005928 194.2774  84.6708 15.27141648  3936
ONEWEB-0281             
1 48999U 21060AJ  21199.83334491 -.01435607  00000-0 -43375-1 0  9996
2 48999  87.4068 231.2669 0008159 201.8225 351.3156 15.37261623  3942
ONEWEB-0282             
1 49000U 21060AK  21199.83334491 -.01440363  00000-0 -45128-1 0  9993
2 49000  87.4093 231.2622 0011087 183.8193  49.1595 15.36101986  3965
ONEWEB-0283             
1 49001U 21060AL  21199.83334491 -.01438787  00000-0 -44612-1 0  9998
2 49001  87.4115 231.2665 0011089 181.4521  60.1401 15.36420992  3969
ONEWEB-0284             
1 49002U 21060AM  21199.83334491 -.01437460  00000-0 -50635-1 0  9998
2 49002  87.4083 231.2774 0006281 180.8950 282.4104 15.32491217  3943
